ONEWEB-0456             
1 51646U 22012AA  25198.28661885 -.00000118  00000+0 -37352-3 0  9992
2 51646  87.8808 103.0155 0002094  76.6086 283.5274 13.10369749165484
ONEWEB-0457             
1 51647U 22012AB  25199.17968655  .00000697  00000+0  19603-2 0  9995
2 51647  87.8820 102.8950 0001533  76.9891 283.1407 13.10373817166906
ONEWEB-0458             
1 51648U 22012AC  25198.28495808 -.00000093  00000+0 -30361-3 0  9999
2 51648  87.8802 103.0500 0001913  80.9206 279.2138 13.10369699165446
ONEWEB-0461             
1 51649U 22012AD  25198.73025654  .00000031  00000+0  46356-4 0  9990
2 51649  87.9042  72.4212 0001764  77.1195 283.0133 13.17648930169843
ONEWEB-0463             
1 51650U 22012AE  25198.18014589  .00000080  00000+0  17331-3 0  9990
2 51650  87.9044  72.5953 0001785  82.3442 277.7892 13.17649516169557
ONEWEB-0464             
1 51651U 22012AF  25198.66343004  .00000160  00000+0  42309-3 0  9993
2 51651  87.8819 103.0071 0002232  77.2981 282.8396 13.10369973165514
ONEWEB-0468             
1 51652U 22012AG  25199.20456493 -.00000010  00000+0 -66096-4 0  9998
2 51652  87.8817 102.8908 0001934  77.6490 282.4854 13.10370625166855
ONEWEB-0473             
1 51653U 22012AH  25199.18964290  .00000690  00000+0  19412-2 0  9995
2 51653  87.8819 102.8973 0001957  80.3895 279.7453 13.10371638166865
ONEWEB-0474             
1 51654U 22012AJ  25198.26505688  .00000701  00000+0  19731-2 0  9993
2 51654  87.8811 103.0419 0002130  81.2986 278.8382 13.10372591166726
ONEWEB-0475             
1 51655U 22012AK  25198.19196019  .00000035  00000+0  55681-4 0  9996
2 51655  87.9047  72.5730 0002334  98.4244 261.7152 13.17648415169578
ONEWEB-0490             
1 54113U 22138A   25199.00996665  .00000019  00000+0  15981-4 0  9994
2 54113  87.9216  11.3789 0002052  89.7614 270.3754 13.19725863133620
ONEWEB-0492             
1 54114U 22138B   25199.03525149  .00000050  00000+0  92357-4 0  9990
2 54114  87.9215  11.3980 0001972  85.7680 274.3678 13.19724120133637
ONEWEB-0495             
1 54115U 22138C   25199.01314882  .00002788  00000+0  69313-2 0  9993
2 54115  87.9218  11.4142 0002552  91.1244 269.0181 13.19719727133619
ONEWEB-0497             
1 54116U 22138D   25198.87414015 -.00000010  00000+0 -57326-4 0  9997
2 54116  87.9217  11.4126 0001951  91.1124 269.0232 13.19726204133581
ONEWEB-0499             
1 54117U 22138E   25199.00840219 -.00000016  00000+0 -72380-4 0  9996
2 54117  87.9219  11.4049 0002057 101.0085 259.1279 13.19724643133613
ONEWEB-0500             
1 54118U 22138F   25199.01155472 -.00000012  00000+0 -63167-4 0  9997
2 54118  87.9219  11.3883 0001852  90.3103 269.8242 13.19725460133629
ONEWEB-0501             
1 54119U 22138G   25199.04156994  .00000037  00000+0  59107-4 0  9995
2 54119  87.9218  11.3751 0002292  92.8287 267.3108 13.19724223133600
ONEWEB-0502             
1 54120U 22138H   25199.02735192  .00000022  00000+0  21780-4 0  9998
2 54120  87.9214  11.3617 0002125  95.8391 264.2984 13.19724933133621
ONEWEB-0503             
1 54121U 22138J   25199.01629354 -.00000018  00000+0 -78118-4 0  9994
2 54121  87.9215  11.3689 0001794 101.7110 258.4224 13.19725419133610
ONEWEB-0504             
1 54122U 22138K   25199.00365949  .00000007  00000+0 -13736-4 0  9993
2 54122  87.9218  11.3866 0002113  97.1946 262.9427 13.19724395133620
ONEWEB-0505             
1 54123U 22138L   25198.92465258  .00001819  00000+0  45079-2 0  9992
2 54123  87.9217  11.3920 0002589  95.2685 264.8743 13.19742861132727
ONEWEB-0506             
1 54124U 22138M   25198.89941338  .00000076  00000+0  15670-3 0  9996
2 54124  87.9217  11.3935 0002056  93.4514 266.6854 13.19724775133586
ONEWEB-0507             
1 54125U 22138N   25198.99576059  .00000009  00000+0 -95751-5 0  9999
2 54125  87.9218  11.4284 0002091  91.4056 268.7316 13.19727353133642
ONEWEB-0508             
1 54126U 22138P   25198.99260374  .00000074  00000+0  15296-3 0  9995
2 54126  87.9217  11.4114 0002256  89.0493 271.0899 13.19724530133620
ONEWEB-0509             
1 54127U 22138Q   25199.04314543  .00000052  00000+0  96409-4 0  9993
2 54127  87.9217  11.3622 0002005  92.6258 267.5104 13.19725270133604
ONEWEB-0510             
1 54128U 22138R   25198.43799631  .00000065  00000+0  12790-3 0  9995
2 54128  87.9285 341.1210 0001341  97.6581 262.4705 13.20771845135090
ONEWEB-0511             
1 54129U 22138S   25199.03999020  .00000007  00000+0 -15680-4 0  9996
2 54129  87.9217  11.3688 0001871 101.7373 258.3969 13.19725109133639
ONEWEB-0512             
1 54130U 22138T   25198.50137294  .00000076  00000+0  15870-3 0  9991
2 54130  87.9210  11.5210 0002265  96.8106 263.3285 13.19725163132662
ONEWEB-0513             
1 54131U 22138U   25199.02699716  .00000045  00000+0  80409-4 0  9999
2 54131  87.9219  11.3790 0002290  99.1173 261.0220 13.20265174133490
ONEWEB-0514             
1 54132U 22138V   25199.04789123  .00000051  00000+0  95012-4 0  9997
2 54132  87.9218  11.3794 0001733  92.5854 267.5477 13.19726460133626
ONEWEB-0515             
1 54133U 22138W   25198.42536480  .00000121  00000+0  26633-3 0  9995
2 54133  87.9286 341.0992 0001450  68.0501 292.0787 13.20771282135115
ONEWEB-0516             
1 54134U 22138X   25199.02261119 -.00000017  00000+0 -75450-4 0  9995
2 54134  87.9218  11.4216 0001981  89.9371 270.1989 13.19725622133624
ONEWEB-0517             
1 54135U 22138Y   25199.00207769  .00000001  00000+0 -30752-4 0  9993
2 54135  87.9217  11.3839 0001782 102.1073 258.0259 13.19725168133620
ONEWEB-0518             
1 54136U 22138Z   25198.49031567  .00000102  00000+0  22129-3 0  9996
2 54136  87.9218  11.5232 0002053  92.5540 267.5828 13.19724986133550
ONEWEB-0519             
1 54137U 22138AA  25198.51558620  .00000071  00000+0  14383-3 0  9992
2 54137  87.9216  11.4729 0001854  99.9481 260.1861 13.19725141132696
ONEWEB-0520             
1 54138U 22138AB  25199.00523109 -.00000021  00000+0 -85670-4 0  9997
2 54138  87.9217  11.3794 0002209  91.4908 268.6478 13.19724533133619
ONEWEB-0521             
1 54139U 22138AC  25199.03840448  .00000059  00000+0  11525-3 0  9995
2 54139  87.9217  11.3598 0001668  98.4281 261.7041 13.19725914133592
ONEWEB-0522             
1 54140U 22138AD  25199.01786994  .00000070  00000+0  14332-3 0  9992
2 54140  87.9215  11.3651 0001910  90.0401 270.0951 13.19726184133609
ONEWEB-0523             
1 54141U 22138AE  25198.41273422  .00000105  00000+0  22574-3 0  9999
2 54141  87.9281 341.1319 0001017  90.3817 269.7432 13.20770630135114
ONEWEB-0524             
1 54142U 22138AF  25198.40168240  .00000044  00000+0  77149-4 0  9991
2 54142  87.9280 341.1358 0001784  67.6188 292.5134 13.20770743135114
ONEWEB-0525             
1 54143U 22138AG  25199.03683032  .00000063  00000+0  12388-3 0  9997
2 54143  87.9218  11.3807 0002160  91.7382 268.3998 13.19726320133627
ONEWEB-0526             
1 54144U 22138AH  25198.46346614 -.00000011  00000+0 -60913-4 0  9999
2 54144  87.9215  11.4832 0001950  90.5078 269.6278 13.19724503132657
ONEWEB-0529             
1 54145U 22138AJ  25198.99734339  .00000035  00000+0  55566-4 0  9995
2 54145  87.9216  11.4202 0002121  90.5867 269.5509 13.19724352133612
ONEWEB-0531             
1 54146U 22138AK  25198.38748632  .00000053  00000+0  98857-4 0  9990
2 54146  87.9279 341.1330 0001140  76.1957 283.9304 13.20770772135116
ONEWEB-0535             
1 54147U 22138AL  25198.49979970  .00000092  00000+0  19828-3 0  9997
2 54147  87.9214  11.4715 0001464  92.1651 267.9650 13.19725237132698
ONEWEB-0536             
1 54148U 22138AM  25198.45060827  .00000015  00000+0  38261-5 0  9995
2 54148  87.9279 341.1659 0001211  64.3994 295.7264 13.20770032135116
ONEWEB-0527             
1 54642U 22166A   25198.36619919  .00000000  00000+0 -30609-4 0  9999
2 54642  87.9275 310.7929 0001962  97.1411 262.9946 13.21825650127307
ONEWEB-0528             
1 54643U 22166B   25198.37251098 -.00000022  00000+0 -85600-4 0  9997
2 54643  87.9283 310.7920 0002062  97.1847 262.9521 13.21825958127314
ONEWEB-0539             
1 54644U 22166C   25198.71156041  .00000033  00000+0  47678-4 0  9991
2 54644  87.9265 310.6986 0002069 105.3819 254.7543 13.21825106127356
ONEWEB-0540             
1 54645U 22166D   25199.24788427  .00000073  00000+0  14491-3 0  9990
2 54645  87.9272 310.6248 0002063 105.4273 254.7089 13.21825336127883
ONEWEB-0542             
1 54646U 22166E   25198.34254011  .00000130  00000+0  28238-3 0  9996
2 54646  87.9264 310.7697 0001943 111.0245 249.1097 13.21825217127764
ONEWEB-0545             
1 54647U 22166F   25198.38512544  .00000067  00000+0  13153-3 0  9998
2 54647  87.9273 310.7765 0002196 114.4608 245.6755 13.21825854127277
ONEWEB-0580             
1 54648U 22166G   25198.35830276  .00000012  00000+0 -30340-5 0  9991
2 54648  87.9275 310.7794 0001870 110.8753 249.2581 13.21824206127773
ONEWEB-0582             
1 54649U 22166H   25199.00645024 -.00000033  00000+0 -11245-3 0  9995
2 54649  87.9264 310.6494 0001921 116.0413 244.0918 13.21825121127848
ONEWEB-0583             
1 54650U 22166J   25198.33622954  .00000107  00000+0  22810-3 0  9999
2 54650  87.9274 310.8031 0002024 103.1499 256.9861 13.21824236127773
ONEWEB-0584             
1 54651U 22166K   25198.35673210  .00000061  00000+0  11739-3 0  9990
2 54651  87.9273 310.7830 0001794 111.6927 248.4398 13.21825505127751
ONEWEB-0585             
1 54652U 22166L   25199.21462398  .00001739  00000+0  41778-2 0  9998
2 54652  87.9248 310.6058 0001500 113.9108 246.2184 13.21827185127874
ONEWEB-0586             
1 54653U 22166M   25199.22724012 -.00000013  00000+0 -63676-4 0  9993
2 54653  87.9278 310.6195 0002013 105.5776 254.5580 13.21824752127877
ONEWEB-0587             
1 54654U 22166N   25199.23670531  .00000000  00000+0 -30577-4 0  9990
2 54654  87.9275 310.5659 0001981  93.9721 266.1639 13.21826822128024
